start=new Date('2022-12-13T00:00:00.000Z').valueOf();
sats=[{"OBJECT_NAME":"STARLINK-4522","LAUNCH_DATE":"2022-08-10","NORAD_CAT_ID":"53388","FILE":"3695286","RCS_SIZE":"LARGE","SITE":"AFETR","EPHEMERIS_TYPE":"0","OBJECT_ID":"2022-097A","GP_ID":"220211094","CLASSIFICATION_TYPE":"U","APOAPSIS":"541.680","EPOCH":"2022-12-12T14:37:40.262592","OBJECT_TYPE":"PAYLOAD","TLE_LINE1":"1 53388U 22097A   22346.60949378  .00001262  00000-0  97362-4 0  9992","DECAY_DATE":null,"MEAN_ELEMENT_THEORY":"SGP4","PERIAPSIS":"537.784","ARG_OF_PERICENTER":"32.7022","INCLINATION":"53.2188","MEAN_MOTION":"15.08844386","ELEMENT_SET_NO":"999","TLE_LINE2":"2 53388  53.2188  35.1900 0002816  32.7022 327.4145 15.08844386 20248","CENTER_NAME":"EARTH","BSTAR":"0.00009736200000","REF_FRAME":"TEME","TIME_SYSTEM":"UTC","MEAN_MOTION_DDOT":"0.0000000000000","RA_OF_ASC_NODE":"35.1900","REV_AT_EPOCH":"2024","ECCENTRICITY":"0.00028160","SEMIMAJOR_AXIS":"6917.867","COUNTRY_CODE":"US","MEAN_MOTION_DOT":"0.00001262","MEAN_ANOMALY":"327.4145","PERIOD":"95.437"},{"MEAN_MOTION_DOT":"0.00001334","MEAN_ANOMALY":"328.5815","PERIOD":"95.437","COUNTRY_CODE":"US","REV_AT_EPOCH":"2004","ECCENTRICITY":"0.00026130","SEMIMAJOR_AXIS":"6917.845","RA_OF_ASC_NODE":"35.8138","TIME_SYSTEM":"UTC","MEAN_MOTION_DDOT":"0.0000000000000","BSTAR":"0.00010191000000","REF_FRAME":"TEME","ELEMENT_SET_NO":"999","TLE_LINE2":"2 53389  53.2184  35.8138 0002613  31.5333 328.5815 15.08851483 20042","CENTER_NAME":"EARTH","PERIAPSIS":"537.903","INCLINATION":"53.2184","ARG_OF_PERICENTER":"31.5333","MEAN_MOTION":"15.08851483","DECAY_DATE":null,"MEAN_ELEMENT_THEORY":"SGP4","TLE_LINE1":"1 53389U 22097B   22346.46965894  .00001334  00000-0  10191-3 0  9992","APOAPSIS":"541.518","EPOCH":"2022-12-12T11:16:18.532416","OBJECT_TYPE":"PAYLOAD","GP_ID":"220169816","CLASSIFICATION_TYPE":"U","OBJECT_ID":"2022-097B","RCS_SIZE":"LARGE","SITE":"AFETR","EPHEMERIS_TYPE":"0","LAUNCH_DATE":"2022-08-10","OBJECT_NAME":"STARLINK-4523","FILE":"3694071","NORAD_CAT_ID":"53389"},{"CENTER_NAME":"EARTH","TLE_LINE2":"2 53390  53.2190  34.9057 0002635  33.8085 326.3074 15.08836322 20222","ELEMENT_SET_NO":"999","MEAN_MOTION":"15.08836322","INCLINATION":"53.2190","PERIAPSIS":"537.934","ARG_OF_PERICENTER":"33.8085","MEAN_MOTION_DDOT":"0.0000000000000","TIME_SYSTEM":"UTC","REF_FRAME":"TEME","BSTAR":"0.00007373500000","SEMIMAJOR_AXIS":"6917.892","ECCENTRICITY":"0.00026350","REV_AT_EPOCH":"2022","RA_OF_ASC_NODE":"34.9057","PERIOD":"95.438","MEAN_ANOMALY":"326.3074","MEAN_MOTION_DOT":"0.00000885","COUNTRY_CODE":"US","FILE":"3695286","NORAD_CAT_ID":"53390","LAUNCH_DATE":"2022-08-10","OBJECT_NAME":"STARLINK-4517","OBJECT_ID":"2022-097C","EPHEMERIS_TYPE":"0","SITE":"AFETR","RCS_SIZE":"LARGE","OBJECT_TYPE":"PAYLOAD","EPOCH":"2022-12-12T16:07:45.704064","APOAPSIS":"541.579","CLASSIFICATION_TYPE":"U","GP_ID":"220211309","MEAN_ELEMENT_THEORY":"SGP4","DECAY_DATE":null,"TLE_LINE1":"1 53390U 22097C   22346.67205676  .00000885  00000-0  73735-4 0  9996"},{"MEAN_MOTION_DDOT":"0.0000000000000","TIME_SYSTEM":"UTC","REF_FRAME":"TEME","BSTAR":"0.00009460200000","ELEMENT_SET_NO":"999","CENTER_NAME":"EARTH","TLE_LINE2":"2 53391  53.2179  34.0506 0002658  29.3587 330.7554 15.08846757 20104","INCLINATION":"53.2179","PERIAPSIS":"537.886","ARG_OF_PERICENTER":"29.3587","MEAN_MOTION":"15.08846757","MEAN_MOTION_DOT":"0.00001218","PERIOD":"95.437","MEAN_ANOMALY":"330.7554","COUNTRY_CODE":"US","ECCENTRICITY":"0.00026580","REV_AT_EPOCH":"2010","SEMIMAJOR_AXIS":"6917.860","RA_OF_ASC_NODE":"34.0506","OBJECT_ID":"2022-097D","SITE":"AFETR","RCS_SIZE":"LARGE","EPHEMERIS_TYPE":"0","OBJECT_NAME":"STARLINK-4521","LAUNCH_DATE":"2022-08-10","FILE":"3695286","NORAD_CAT_ID":"53391","DECAY_DATE":null,"MEAN_ELEMENT_THEORY":"SGP4","TLE_LINE1":"1 53391U 22097D   22346.86341524  .00001218  00000-0  94602-4 0  9998","APOAPSIS":"541.564","EPOCH":"2022-12-12T20:43:19.076736","OBJECT_TYPE":"PAYLOAD","CLASSIFICATION_TYPE":"U","GP_ID":"220212160"},{"CLASSIFICATION_TYPE":"U","GP_ID":"220171556","OBJECT_TYPE":"PAYLOAD","EPOCH":"2022-12-12T11:00:24.188256","APOAPSIS":"541.665","TLE_LINE1":"1 53392U 22097E   22346.45861329  .00002911  00000-0  20094-3 0  9998","MEAN_ELEMENT_THEORY":"SGP4","DECAY_DATE":null,"FILE":"3694071","NORAD_CAT_ID":"53392","OBJECT_NAME":"STARLINK-4535","LAUNCH_DATE":"2022-08-10","EPHEMERIS_TYPE":"0","SITE":"AFETR","RCS_SIZE":"LARGE","OBJECT_ID":"2022-097E","RA_OF_ASC_NODE":"35.8639","SEMIMAJOR_AXIS":"6917.869","ECCENTRICITY":"0.00027920","REV_AT_EPOCH":"2004","COUNTRY_CODE":"US","PERIOD":"95.437","MEAN_ANOMALY":"328.5913","MEAN_MOTION_DOT":"0.00002911","MEAN_MOTION":"15.08843879","ARG_OF_PERICENTER":"31.5246","PERIAPSIS":"537.802","INCLINATION":"53.2172","CENTER_NAME":"EARTH","TLE_LINE2":"2 53392  53.2172  35.8639 0002792  31.5246 328.5913 15.08843879 20049","ELEMENT_SET_NO":"999","REF_FRAME":"TEME","BSTAR":"0.00020094000000","MEAN_MOTION_DDOT":"0.0000000000000","TIME_SYSTEM":"UTC"},{"MEAN_MOTION":"15.08852446","PERIAPSIS":"537.747","ARG_OF_PERICENTER":"23.2125","INCLINATION":"53.2161","TLE_LINE2":"2 53393  53.2161  34.0605 0002834  23.2125 336.8994 15.08852446 20101","CENTER_NAME":"EARTH","ELEMENT_SET_NO":"999","BSTAR":"0.00007935500000","REF_FRAME":"TEME","TIME_SYSTEM":"UTC","MEAN_MOTION_DDOT":"0.0000000000000","RA_OF_ASC_NODE":"34.0605","SEMIMAJOR_AXIS":"6917.842","REV_AT_EPOCH":"2010","ECCENTRICITY":"0.00028340","COUNTRY_CODE":"US","MEAN_ANOMALY":"336.8994","PERIOD":"95.437","MEAN_MOTION_DOT":"0.00000975","NORAD_CAT_ID":"53393","FILE":"3695286","LAUNCH_DATE":"2022-08-10","OBJECT_NAME":"STARLINK-4530","EPHEMERIS_TYPE":"0","RCS_SIZE":"LARGE","SITE":"AFETR","OBJECT_ID":"2022-097F","GP_ID":"220211949","CLASSIFICATION_TYPE":"U","EPOCH":"2022-12-12T20:38:00.875040","OBJECT_TYPE":"PAYLOAD","APOAPSIS":"541.668","TLE_LINE1":"1 53393U 22097F   22346.85973235  .00000975  00000-0  79355-4 0  9996","MEAN_ELEMENT_THEORY":"SGP4","DECAY_DATE":null},{"BSTAR":"0.00004290200000","REF_FRAME":"TEME","TIME_SYSTEM":"UTC","MEAN_MOTION_DDOT":"0.0000000000000","MEAN_MOTION":"15.08841891","PERIAPSIS":"538.131","INCLINATION":"53.2184","ARG_OF_PERICENTER":"38.9950","TLE_LINE2":"2 53394  53.2184  25.4828 0002325  38.9950 321.1210 15.08841891 20191","CENTER_NAME":"EARTH","ELEMENT_SET_NO":"999","COUNTRY_CODE":"US","MEAN_ANOMALY":"321.1210","PERIOD":"95.437","MEAN_MOTION_DOT":"0.00000395","RA_OF_ASC_NODE":"25.4828","SEMIMAJOR_AXIS":"6917.875","REV_AT_EPOCH":"2019","ECCENTRICITY":"0.00023250","EPHEMERIS_TYPE":"0","RCS_SIZE":"LARGE","SITE":"AFETR","OBJECT_ID":"2022-097G","FILE":"3694071","NORAD_CAT_ID":"53394","OBJECT_NAME":"STARLINK-4544","LAUNCH_DATE":"2022-08-10","TLE_LINE1":"1 53394U 22097G   22346.48991423  .00000395  00000-0  42902-4 0  9999","MEAN_ELEMENT_THEORY":"SGP4","DECAY_DATE":null,"GP_ID":"220170067","CLASSIFICATION_TYPE":"U","OBJECT_TYPE":"PAYLOAD","EPOCH":"2022-12-12T11:45:28.589472","APOAPSIS":"541.348"},{"OBJECT_NAME":"STARLINK-4534","LAUNCH_DATE":"2022-08-10","FILE":"3695286","NORAD_CAT_ID":"53395","RCS_SIZE":"LARGE","SITE":"AFETR","EPHEMERIS_TYPE":"0","OBJECT_ID":"2022-097H","GP_ID":"220211738","CLASSIFICATION_TYPE":"U","APOAPSIS":"541.412","EPOCH":"2022-12-12T20:27:25.905888","OBJECT_TYPE":"PAYLOAD","TLE_LINE1":"1 53395U 22097H   22346.85238317  .00001328  00000-0  10155-3 0  9998","DECAY_DATE":null,"MEAN_ELEMENT_THEORY":"SGP4","PERIAPSIS":"538.050","ARG_OF_PERICENTER":"29.3563","INCLINATION":"53.2188","MEAN_MOTION":"15.08844608","ELEMENT_SET_NO":"999","TLE_LINE2":"2 53395  53.2188  34.0993 0002430  29.3563 330.7565 15.08844608 19945","CENTER_NAME":"EARTH","BSTAR":"0.00010155000000","REF_FRAME":"TEME","TIME_SYSTEM":"UTC","MEAN_MOTION_DDOT":"0.0000000000000","RA_OF_ASC_NODE":"34.0993","REV_AT_EPOCH":"1994","ECCENTRICITY":"0.00024300","SEMIMAJOR_AXIS":"6917.866","COUNTRY_CODE":"US","MEAN_MOTION_DOT":"0.00001328","MEAN_ANOMALY":"330.7565","PERIOD":"95.437"},{"TLE_LINE1":"1 53396U 22097J   22346.50645975  .00012587  00000-0  80690-3 0  9993","MEAN_ELEMENT_THEORY":"SGP4","DECAY_DATE":null,"GP_ID":"220171056","CLASSIFICATION_TYPE":"U","EPOCH":"2022-12-12T12:09:18.122400","OBJECT_TYPE":"PAYLOAD","APOAPSIS":"541.525","EPHEMERIS_TYPE":"0","RCS_SIZE":"LARGE","SITE":"AFETR","OBJECT_ID":"2022-097J","FILE":"3694071","NORAD_CAT_ID":"53396","LAUNCH_DATE":"2022-08-10","OBJECT_NAME":"STARLINK-4524","COUNTRY_CODE":"US","MEAN_ANOMALY":"327.3499","PERIOD":"95.436","MEAN_MOTION_DOT":"0.00012587","RA_OF_ASC_NODE":"35.6409","SEMIMAJOR_AXIS":"6917.798","REV_AT_EPOCH":"1989","ECCENTRICITY":"0.00026920","BSTAR":"0.00080690000000","REF_FRAME":"TEME","TIME_SYSTEM":"UTC","MEAN_MOTION_DDOT":"0.0000000000000","MEAN_MOTION":"15.08867092","ARG_OF_PERICENTER":"32.7659","PERIAPSIS":"537.800","INCLINATION":"53.2196","TLE_LINE2":"2 53396  53.2196  35.6409 0002692  32.7659 327.3499 15.08867092 19892","CENTER_NAME":"EARTH","ELEMENT_SET_NO":"999"},{"TLE_LINE1":"1 53397U 22097K   22346.84868924  .00000808  00000-0  68866-4 0  9997","DECAY_DATE":null,"MEAN_ELEMENT_THEORY":"SGP4","GP_ID":"220211526","CLASSIFICATION_TYPE":"U","APOAPSIS":"541.154","EPOCH":"2022-12-12T20:22:06.750336","OBJECT_TYPE":"PAYLOAD","RCS_SIZE":"LARGE","SITE":"AFETR","EPHEMERIS_TYPE":"0","OBJECT_ID":"2022-097K","LAUNCH_DATE":"2022-08-10","OBJECT_NAME":"STARLINK-4515","FILE":"3695286","NORAD_CAT_ID":"53397","COUNTRY_CODE":"US","MEAN_MOTION_DOT":"0.00000808","MEAN_ANOMALY":"316.7567","PERIOD":"95.437","RA_OF_ASC_NODE":"34.1161","REV_AT_EPOCH":"1994","ECCENTRICITY":"0.00020670","SEMIMAJOR_AXIS":"6917.859","BSTAR":"0.00006886600000","REF_FRAME":"TEME","TIME_SYSTEM":"UTC","MEAN_MOTION_DDOT":"0.0000000000000","INCLINATION":"53.2181","PERIAPSIS":"538.294","ARG_OF_PERICENTER":"43.3588","MEAN_MOTION":"15.08846939","ELEMENT_SET_NO":"999","TLE_LINE2":"2 53397  53.2181  34.1161 0002067  43.3588 316.7567 15.08846939 19942","CENTER_NAME":"EARTH"}];
